[{"OBJECT_NAME":"STARLINK-5442","OBJECT_ID":"2022-175AC","EPOCH":"2026-03-09T23:06:08.894016","MEAN_MOTION":15.08838201,"ECCENTRICITY":0.0001322,"INCLINATION":53.2184,"RA_OF_ASC_NODE":42.6538,"ARG_OF_PERICENTER":92.9354,"MEAN_ANOMALY":267.179,"EPHEMERIS_TYPE":0,"CLASSIFICATION_TYPE":"U","NORAD_CAT_ID":54784,"ELEMENT_SET_NO":999,"REV_AT_EPOCH":17996,"BSTAR":1.9000892e-5,"MEAN_MOTION_DOT":1.5e-7,"MEAN_MOTION_DDOT":0},{"OBJECT_NAME":"DISKSAT C","OBJECT_ID":"2025-305A","EPOCH":"2026-03-09T19:16:32.318976","MEAN_MOTION":15.07852977,"ECCENTRICITY":0.00045341,"INCLINATION":45.0017,"RA_OF_ASC_NODE":250.1278,"ARG_OF_PERICENTER":310.7706,"MEAN_ANOMALY":49.2776,"EPHEMERIS_TYPE":0,"CLASSIFICATION_TYPE":"U","NORAD_CAT_ID":67219,"ELEMENT_SET_NO":999,"REV_AT_EPOCH":1231,"BSTAR":0.00075564202,"MEAN_MOTION_DOT":0.00011541,"MEAN_MOTION_DDOT":0}]
